OSCAR 7 (AO-7)          
1 07530U 74089B   24032.76821396 -.00000020  00000+0  16508-3 0  9991
2 07530 101.9710  26.1784 0012117 346.0389  64.6566 12.53671690251943
PHASE 3B (AO-10)        
1 14129U 83058B   24030.49159737 -.00000367  00000+0  00000+0 0  9990
2 14129  27.4730   0.9922 6032242 240.7878  46.6947  2.05872865277600
UOSAT 2 (UO-11)         
1 14781U 84021B   24033.43907535  .00001837  00000+0  21622-3 0  9998
2 14781  97.6882   7.0004 0008649 154.0085 206.1567 14.85975068149323
LUSAT (LO-19)           
1 20442U 90005G   24032.83529268  .00000280  00000+0  11834-3 0  9999
2 20442  98.8716  19.6046 0010963 221.6570 138.3780 14.33426635778246
EYESAT A (AO-27)        
1 22825U 93061C   24033.14048998  .00000139  00000+0  70771-4 0  9991
2 22825  98.8103  84.3700 0009399 114.1144 246.1021 14.30419683583436
ITAMSAT (IO-26)         
1 22826U 93061D   24033.08498011  .00000167  00000+0  81007-4 0  9995
2 22826  98.8050  84.1757 0010039 101.4196 258.8114 14.30793001583686
RADIO ROSTO (RS-15)     
1 23439U 94085A   24032.79753856 -.00000029  00000+0  36964-3 0  9990
2 23439  64.8146 264.3405 0154539 169.0990 191.3344 11.27575719198218
JAS-2 (FO-29)           
1 24278U 96046B   24032.55357472  .00000003  00000+0  38153-4 0  9993
2 24278  98.5652 345.2199 0350120 182.0395 177.9337 13.53171224355955
TECHSAT 1B (GO-32)      
1 25397U 98043D   24033.48847067  .00000154  00000+0  86962-4 0  9990
2 25397  98.9034 358.3270 0001473 147.4689 212.6580 14.23978952328325
ISS (ZARYA)             
1 25544U 98067A   24033.51143049  .00033100  00000+0  59636-3 0  9997
2 25544  51.6427 267.6778 0002166 190.7755 226.1392 15.49477716437515
PCSAT (NO-44)           
1 26931U 01043C   24032.79433810  .00000303  00000+0  14616-3 0  9991
2 26931  67.0527 323.8783 0005177 270.1400  89.9108 14.31111219166437
SAUDISAT 1C (SO-50)     
1 27607U 02058C   24032.85052721  .00001417  00000+0  21142-3 0  9993
2 27607  64.5544 280.3648 0041316 169.1129 191.0879 14.78265492136167
CUTE-1 (CO-55)          
1 27844U 03031E   24032.83804481  .00000488  00000+0  23571-3 0  9999
2 27844  98.6794  41.7742 0009842 174.1385 185.9910 14.23060042 68398
CUBESAT XI-IV (CO-57)   
1 27848U 03031J   24032.86072513  .00000406  00000+0  20155-3 0  9994
2 27848  98.6828  42.1131 0009452 189.6447 170.4551 14.22531168 68159
MOZHAYETS 4 (RS-22)     
1 27939U 03042A   24033.52380429  .00001659  00000+0  28947-3 0  9997
2 27939  98.2695 187.7986 0013105 126.0513 323.6665 14.69288868 88350
CUBESAT XI-V            
1 28895U 05043F   24033.32822701  .00002006  00000+0  36746-3 0  9997
2 28895  98.1792 169.2349 0017016  68.3767 291.9248 14.66820748974760
CUTE-1.7+APD II (CO-65) 
1 32785U 08021C   24032.87915674  .00004504  00000+0  41907-3 0  9990
2 32785  97.7384 359.7030 0013223  63.6001 296.6575 14.94751629855173
SEEDS II (CO-66)        
1 32791U 08021J   24033.44720354  .00007766  00000+0  61886-3 0  9991
2 32791  97.6811   5.8246 0008830  29.8108 330.3617 15.00589438856227
YUBILEINY (RS-30)       
1 32953U 08025A   24033.46161915  .00000040  00000+0  21474-3 0  9996
2 32953  82.5051 173.8884 0019504  44.0282 316.2347 12.43135006712262
KKS-1 (KISEKI)          
1 33499U 09002H   24033.17704733  .00001813  00000+0  25840-3 0  9997
2 33499  98.1524 293.2496 0007905 200.7077 159.3814 14.78036241808450
SWISSCUBE               
1 35932U 09051B   24032.94253285  .00001418  00000+0  31573-3 0  9991
2 35932  98.4909 273.4420 0008025  26.5453 333.6155 14.58496908762730
BEESAT-1                
1 35933U 09051C   24032.65152686  .00001256  00000+0  28203-3 0  9999
2 35933  98.4838 274.2229 0006493  40.5596 319.6085 14.58305615762728
ITUPSAT1                
1 35935U 09051E   24033.11970959  .00001119  00000+0  25792-3 0  9992
2 35935  98.4937 274.5523 0008819  42.5349 317.6531 14.57303491762477
XIWANG-1 (HOPE-1)       
1 36122U 09072B   24032.84035083  .00000017  00000+0  15874-3 0  9999
2 36122 100.2753 354.8106 0008054  58.4259 301.7640 13.16394572679016
JUGNU                   
1 37839U 11058B   24033.46933462  .00000577  00000+0  16370-3 0  9992
2 37839  19.9598 165.6052 0018558 239.3709 174.9854 14.13109422636503
SRMSAT                  
1 37841U 11058D   24032.85591824  .00000511  00000+0  13494-3 0  9991
2 37841  19.9712 261.2972 0011800  36.4776  56.0510 14.11027686635283
M-CUBED & EXP-1 PRIME   
1 37855U 11061F   24032.91059306  .00051996  00000+0  95052-3 0  9994
2 37855 101.6859 132.9713 0080015  46.3265 314.4563 15.45670981671798
STRAND-1                
1 39090U 13009E   24033.05409660  .00000502  00000+0  18796-3 0  9996
2 39090  98.3806 225.0827 0008013 303.5087  56.5333 14.35872912572721
ZACUBE-1 (TSHEPISOSAT)  
1 39417U 13066B   24033.44382806  .00004448  00000+0  48662-3 0  9995
2 39417  97.7177 352.8021 0050718 248.4208 111.1600 14.87379288551394
GOMX-1                  
1 39430U 13066Q   24033.41874705  .00002889  00000+0  49429-3 0  9990
2 39430  97.7524 275.9536 0141699 324.6017  34.5842 14.63177324543180
CUBEBUG-2 (LO-74)       
1 39440U 13066AA  24032.70140444  .00005222  00000+0  64118-3 0  9994
2 39440  97.7999 339.6178 0072364   1.2653 358.8729 14.81625302548111
FUNCUBE-1 (AO-73)       
1 39444U 13066AE  24032.83250542  .00006082  00000+0  62718-3 0  9992
2 39444  97.7033 355.0413 0048658 232.4984 127.1806 14.89694248549793
UWE-3                   
1 39446U 13066AG  24032.82146385  .00005365  00000+0  62452-3 0  9990
2 39446  97.7657 345.8032 0061289 308.4200  51.1522 14.84334417548469
SPROUT                  
1 39770U 14029E   24033.35979686  .00038617  00000+0  18496-2 0  9991
2 39770  98.0022 175.2905 0006503 271.0594  88.9894 15.18814847526871
UNISAT-6                
1 40012U 14033C   24033.03603799  .00002875  00000+0  39091-3 0  9993
2 40012  97.6861 201.2743 0054721  30.0123 330.4206 14.78497658517711
DUCHIFAT-1              
1 40021U 14033M   24032.73182321  .00010440  00000+0  78029-3 0  9993
2 40021  98.0813  10.1510 0013070 190.4668 169.6286 15.02924947523608
QB50P1                  
1 40025U 14033R   24032.85464803  .00006065  00000+0  53055-3 0  9998
2 40025  98.0257 349.5650 0008981 250.6054 109.4196 14.97096250522466
KAITUO 1A               
1 40904U 15049F   24033.50071929  .00023733  00000+0  66729-3 0  9991
2 40904  97.4953  46.7251 0011537  82.9946 277.2610 15.36439144463543
2015-049G               
1 40905U 15049G   24033.46368263  .00008412  00000+0  33767-3 0  9990
2 40905  97.5271  41.4741 0014497  97.9998 262.2885 15.25130180463000
XW-2C                   
1 40906U 15049H   24033.49139690  .00018685  00000+0  55972-3 0  9999
2 40906  97.4896  47.5779 0011960  71.6814 288.5729 15.34491906463610
XW-2D                   
1 40907U 15049J   24033.47716294  .00024340  00000+0  63898-3 0  9990
2 40907  97.4858  49.0112 0010560  64.9582 295.2758 15.38572411463767
LILACSAT-2              
1 40908U 15049K   24033.48465989  .00007068  00000+0  29954-3 0  9997
2 40908  97.5286  41.5024 0014955 104.1953 256.0947 15.23357673462819
XW-2E                   
1 40909U 15049L   24033.44068051  .00140288  00000+0  11922-2 0  9990
2 40909  97.4292  59.7744 0004444  36.6486 323.5079 15.69171557464800
XW-2F                   
1 40910U 15049M   24033.44342082  .00132039  00000+0  12002-2 0  9996
2 40910  97.4397  59.0044 0005186  36.9647 323.1970 15.67537426464524
XW-2B                   
1 40911U 15049N   24033.45350241  .00024534  00000+0  65295-3 0  9997
2 40911  97.4834  49.2477 0010628  66.1805 294.0553 15.38147019463637
LAPAN-A2                
1 40931U 15052B   24006.28856983  .00001263  00000+0  84248-4 0  9992
2 40931   6.0004  76.3799 0013541 291.8204  68.0484 14.77555377447321
E-ST@R-II               
1 41459U 16025D   24033.42858222  .00090766  00000+0  12226-2 0  9994
2 41459  98.1502 266.4336 0063827   6.8854 353.3259 15.55089665428337
AIST-2D (RS-48)         
1 41465U 16026B   24033.45144184  .00100643  00000+0  50325-3 0  9999
2 41465  96.9573 268.0947 0006363  84.9171 275.2825 15.81510809436029
CAS-2T & KS-1Q          
1 41847U 16066G   24033.20886853  .00001971  00000+0  29951-3 0  9991
2 41847  98.4767 105.4884 0355633 226.4836 130.6294 14.40626313379917
ZHUHAI-1 02 (CAS-4B)    
1 42759U 17034B   24033.12253630  .00012408  00000+0  52498-3 0  9991
2 42759  43.0123 272.4349 0011134 171.4454 188.6588 15.23088308366624
ZHUHAI-1 01 (CAS-4A)    
1 42761U 17034D   24033.13404009  .00013042  00000+0  54975-3 0  9990
2 42761  43.0132 270.8256 0011662 174.6358 185.4619 15.23172878366637
MAX VALIER SAT          
1 42778U 17036P   24032.85919974  .00047042  00000+0  68040-3 0  9995
2 42778  97.1273  69.2546 0004995   1.8015 358.3257 15.55768424368213
RADFXSAT (FOX-1B)       
1 43017U 17073E   24033.15915516  .00008527  00000+0  55532-3 0  9992
2 43017  97.5995 273.5989 0221209  27.7029 333.5770 14.90187440335385
FOX-1D (AO-92)          
1 43137U 18004AC  24033.21424008  .05640020  24152-5  96152-3 0  9996
2 43137  97.2756 125.5989 0008776 287.9157  72.1182 16.33038073338247
DIWATA-2B               
1 43678U 18084H   24033.46240855  .00001499  00000+0  14440-3 0  9993
2 43678  98.0503 187.7153 0010331 116.2294 243.9988 14.94498294286643
ES'HAIL 2               
1 43700U 18090A   24032.60257841  .00000162  00000+0  00000+0 0  9993
2 43700   0.0164  93.2182 0001038 230.5101  50.3174  1.00276183 18980
FOX-1CLIFF (AO-95)      
1 43770U 18099N   24032.15629073  .00006231  00000+0  46382-3 0  9999
2 43770  97.5684  93.0691 0016723 106.4501 253.8564 15.03181531281963
ITASAT                  
1 43786U 18099AE  24033.39259589  .00005202  00000+0  39878-3 0  9993
2 43786  97.5273  94.5763 0018599  90.6585 269.6771 15.02111073282171
